OBJECT_NAME,OBJECT_ID,EPOCH,MEAN_MOTION,ECCENTRICITY,INCLINATION,RA_OF_ASC_NODE,ARG_OF_PERICENTER,MEAN_ANOMALY,EPHEMERIS_TYPE,CLASSIFICATION_TYPE,NORAD_CAT_ID,ELEMENT_SET_NO,REV_AT_EPOCH,BSTAR,MEAN_MOTION_DOT,MEAN_MOTION_DDOT
NOAA 20 (JPSS-1),2017-073A,2026-02-27T06:08:04.306560,14.19532998,.00007223,98.7679,358.7474,150.6424,209.4793,0,U,43013,999,42887,.5782279E-4,.78E-6,0
MAKERSAT 0,2017-073D,2026-02-27T05:18:07.718688,15.27211379,.01169518,97.4810,300.1668,303.4081,55.6013,0,U,43016,999,44965,.78852753E-3,.25726E-3,0
RADFXSAT (FOX-1B),2017-073E,2026-02-27T06:18:19.970496,15.10601871,.01561655,97.4881,287.7793,348.1708,11.5868,0,U,43017,999,44878,.51384023E-3,.1131E-3,0
JILIN-1 04,2017-074A,2026-02-27T06:43:24.097728,15.39338083,.00037444,97.4766,165.2833,216.2071,143.8922,0,U,43022,999,45734,.41963383E-3,.16317E-3,0
JILIN-1 05,2017-074B,2026-02-27T06:29:03.792192,15.32270127,.00039763,97.4783,163.1408,253.4207,106.6598,0,U,43023,999,45716,.23937061E-3,.738E-4,0
JILIN-1 06,2017-074C,2026-02-27T05:45:20.196576,15.32254977,.00056715,97.4721,160.2259,269.4421,90.6171,0,U,43024,999,45699,.23782752E-3,.733E-4,0
YAOGAN-30 03A,2017-075A,2026-02-26T21:53:01.808736,15.02142366,.0001364,34.9929,222.4829,43.5376,316.5439,0,U,43028,999,45065,.25387E-3,.3379E-4,0
YAOGAN-30 03B,2017-075B,2026-02-27T03:49:05.395872,15.02088696,.0003501,34.9928,220.5545,337.7784,22.2772,0,U,43029,999,45080,.2337406E-3,.3105E-4,0
YAOGAN-30 03C,2017-075C,2026-02-27T03:17:47.457312,15.02075924,.00017584,34.9933,220.6382,185.5720,174.4969,0,U,43030,999,45086,.26349957E-3,.3503E-4,0
COSMOS 2524,2017-076A,2026-02-27T05:44:05.777664,13.97413662,.00098004,67.1455,100.0779,251.8047,108.1971,0,U,43032,999,42024,.20337467E-4,-.47E-6,0
LKW-1,2017-077A,2026-02-27T06:50:17.226240,15.23425430,.00018846,97.1155,98.3112,183.6585,176.4639,0,U,43034,999,45796,.26798247E-3,.6316E-4,0
ALCOMSAT 1,2017-078A,2026-02-27T03:13:51.773664,1.00270657,.00028431,0.0292,174.7841,145.2507,220.5919,0,U,43039,999,3019,0,-.2E-5,0
GSAT0215 (GALILEO 19),2017-079A,2026-02-25T13:33:44.741088,1.70474297,.000073,55.1083,224.5748,21.8950,338.0810,0,U,43055,999,5108,0,.57E-6,0
GSAT0216 (GALILEO 20),2017-079B,2026-02-27T00:42:27.020160,1.70474463,.00016803,55.1095,224.5347,324.7313,35.2241,0,U,43056,999,5112,0,.42E-6,0
GSAT0217 (GALILEO 21),2017-079C,2026-02-26T01:50:59.316288,1.70474347,.0002003,55.1084,224.5587,359.3086,0.6623,0,U,43057,999,5109,0,.52E-6,0
GSAT0218 (GALILEO 22),2017-079D,2026-02-26T07:07:51.082464,1.70474349,.0001871,55.1091,224.5505,307.4250,52.5283,0,U,43058,999,5112,0,.5E-6,0
GCOM-C (SHIKISAI),2017-082A,2026-02-27T03:44:16.914048,14.27287046,.00010136,98.6370,133.2118,105.6676,254.4616,0,U,43065,999,42624,.75953917E-4,.142E-5,0
IRIDIUM 135,2017-083A,2026-02-27T06:23:15.247680,14.34214939,.00022025,86.4011,7.9455,86.1821,273.9626,0,U,43070,999,42839,.11191281E-3,.333E-5,0
IRIDIUM 138,2017-083B,2026-02-27T05:19:19.203456,14.34217782,.00024287,86.4027,7.6432,78.5504,281.5964,0,U,43071,999,42837,.535762E-6,.21E-6,0
IRIDIUM 116,2017-083C,2026-02-27T04:33:39.142368,14.34217445,.00018323,86.4007,7.9650,93.2513,266.8892,0,U,43072,999,42840,-.9402074E-5,-.7E-7,0
IRIDIUM 130,2017-083D,2026-02-27T05:28:27.099552,14.34217160,.00018894,86.4017,8.2132,85.7380,274.4032,0,U,43073,999,42835,.10967286E-3,.327E-5,0
IRIDIUM 151,2017-083E,2026-02-27T06:32:23.185248,14.34217392,.00020277,86.4004,7.9860,84.7636,275.3791,0,U,43074,999,42838,-.14113712E-4,-.2E-6,0
IRIDIUM 134,2017-083F,2026-02-27T05:46:43.149216,14.34217404,.00019543,86.4011,8.0055,84.3481,275.7938,0,U,43075,999,42834,-.17060172E-4,-.28E-6,0
IRIDIUM 137,2017-083G,2026-02-27T04:24:31.171968,14.34217811,.00021099,86.4009,8.1198,98.4093,261.7342,0,U,43076,999,42840,.29171447E-4,.101E-5,0
IRIDIUM 141,2017-083H,2026-02-27T04:15:24.495840,14.34217387,.00022659,86.4010,7.9591,83.6115,276.5339,0,U,43077,999,42840,.10224851E-3,.306E-5,0
IRIDIUM 153,2017-083J,2026-02-27T06:27:27.431136,14.34217429,.0002096,86.4016,336.4342,75.9483,284.1945,0,U,43078,999,42952,-.14115264E-4,-.2E-6,0
IRIDIUM 131,2017-083K,2026-02-27T05:37:34.661280,14.34220710,.00022566,86.4011,8.1137,86.8188,273.3266,0,U,43079,999,42834,.82830008E-4,.252E-5,0
LKW-2,2017-084A,2026-02-27T07:04:19.037856,15.24749957,.00001424,97.1364,103.2599,260.8361,99.2862,0,U,43080,999,45493,.29488372E-3,.7237E-4,0
YAOGAN-30 04A,2017-085A,2026-02-27T05:46:49.101312,15.02045999,.00057342,34.9959,99.8756,267.3522,92.6530,0,U,43081,999,44617,.26195908E-3,.348E-4,0
YAOGAN-30 04B,2017-085B,2026-02-27T06:18:32.285952,15.02041092,.00039248,34.9949,99.8325,108.0502,252.0634,0,U,43082,999,44615,.24790422E-3,.3291E-4,0
