NOAA 20 (JPSS-1)        
1 43013U 17073A   26058.25560540  .00000078  00000+0  57823-4 0  9990
2 43013  98.7679 358.7474 0000722 150.6424 209.4793 14.19532998428874
MAKERSAT 0              
1 43016U 17073D   26058.22092267  .00025726  00000+0  78853-3 0  9998
2 43016  97.4810 300.1668 0116951 303.4081  55.6013 15.27211379449657
RADFXSAT (FOX-1B)       
1 43017U 17073E   26058.26273114  .00011310  00000+0  51384-3 0  9999
2 43017  97.4881 287.7793 0156165 348.1708  11.5868 15.10601871448782
JILIN-1 04              
1 43022U 17074A   26058.28014002  .00016317  00000+0  41963-3 0  9991
2 43022  97.4766 165.2833 0003744 216.2071 143.8922 15.39338083457342
JILIN-1 05              
1 43023U 17074B   26058.27018278  .00007380  00000+0  23937-3 0  9991
2 43023  97.4783 163.1408 0003976 253.4207 106.6598 15.32270127457161
JILIN-1 06              
1 43024U 17074C   26058.23981709  .00007330  00000+0  23783-3 0  9990
2 43024  97.4721 160.2259 0005671 269.4421  90.6171 15.32254977456999
YAOGAN-30 03A           
1 43028U 17075A   26057.91182649  .00003379  00000+0  25387-3 0  9996
2 43028  34.9929 222.4829 0001364  43.5376 316.5439 15.02142366450657
YAOGAN-30 03B           
1 43029U 17075B   26058.15909023  .00003105  00000+0  23374-3 0  9998
2 43029  34.9928 220.5545 0003501 337.7784  22.2772 15.02088696450800
YAOGAN-30 03C           
1 43030U 17075C   26058.13735483  .00003503  00000+0  26350-3 0  9994
2 43030  34.9933 220.6382 0001758 185.5720 174.4969 15.02075924450863
COSMOS 2524             
1 43032U 17076A   26058.23895576 -.00000047  00000+0  20337-4 0  9999
2 43032  67.1455 100.0779 0009800 251.8047 108.1971 13.97413662420241
LKW-1                   
1 43034U 17077A   26058.28492160  .00006316  00000+0  26798-3 0  9999
2 43034  97.1155  98.3112 0001884 183.6585 176.4639 15.23425430457961
ALCOMSAT 1              
1 43039U 17078A   26058.13462701 -.00000200  00000+0  00000+0 0  9998
2 43039   0.0292 174.7841 0002843 145.2507 220.5919  1.00270657 30196
GSAT0215 (GALILEO 19)   
1 43055U 17079A   26056.56510117  .00000057  00000+0  00000+0 0  9996
2 43055  55.1083 224.5748 0000730  21.8950 338.0810  1.70474297 51086
GSAT0216 (GALILEO 20)   
1 43056U 17079B   26058.02947940  .00000042  00000+0  00000+0 0  9992
2 43056  55.1095 224.5347 0001680 324.7313  35.2241  1.70474463 51122
GSAT0217 (GALILEO 21)   
1 43057U 17079C   26057.07707542  .00000052  00000+0  00000+0 0  9990
2 43057  55.1084 224.5587 0002003 359.3086   0.6623  1.70474347 51095
GSAT0218 (GALILEO 22)   
1 43058U 17079D   26057.29711901  .00000050  00000+0  00000+0 0  9997
2 43058  55.1091 224.5505 0001871 307.4250  52.5283  1.70474349 51127
GCOM-C (SHIKISAI)       
1 43065U 17082A   26058.15575132  .00000142  00000+0  75954-4 0  9996
2 43065  98.6370 133.2118 0001013 105.6676 254.4616 14.27287046426245
IRIDIUM 135             
1 43070U 17083A   26058.26614870  .00000333  00000+0  11191-3 0  9992
2 43070  86.4011   7.9455 0002202  86.1821 273.9626 14.34214939428399
IRIDIUM 138             
1 43071U 17083B   26058.22175004  .00000021  00000+0  53576-6 0  9990
2 43071  86.4027   7.6432 0002428  78.5504 281.5964 14.34217782428379
IRIDIUM 116             
1 43072U 17083C   26058.19003637 -.00000007  00000+0 -94021-5 0  9994
2 43072  86.4007   7.9650 0001832  93.2513 266.8892 14.34217445428401
IRIDIUM 130             
1 43073U 17083D   26058.22809143  .00000327  00000+0  10967-3 0  9993
2 43073  86.4017   8.2132 0001889  85.7380 274.4032 14.34217160428351
IRIDIUM 151             
1 43074U 17083E   26058.27249057 -.00000020  00000+0 -14114-4 0  9992
2 43074  86.4004   7.9860 0002027  84.7636 275.3791 14.34217392428382
IRIDIUM 134             
1 43075U 17083F   26058.24077719 -.00000028  00000+0 -17060-4 0  9995
2 43075  86.4011   8.0055 0001954  84.3481 275.7938 14.34217404428348
IRIDIUM 137             
1 43076U 17083G   26058.18369412  .00000101  00000+0  29171-4 0  9999
2 43076  86.4009   8.1198 0002109  98.4093 261.7342 14.34217811428406
IRIDIUM 141             
1 43077U 17083H   26058.17736685  .00000306  00000+0  10225-3 0  9995
2 43077  86.4010   7.9591 0002265  83.6115 276.5339 14.34217387428405
IRIDIUM 153             
1 43078U 17083J   26058.26906749 -.00000020  00000+0 -14115-4 0  9994
2 43078  86.4016 336.4342 0002096  75.9483 284.1945 14.34217429429529
IRIDIUM 131             
1 43079U 17083K   26058.23442895  .00000252  00000+0  82830-4 0  9993
2 43079  86.4011   8.1137 0002256  86.8188 273.3266 14.34220710428343
LKW-2                   
1 43080U 17084A   26058.29466479  .00007237  00000+0  29488-3 0  9995
2 43080  97.1364 103.2599 0000142 260.8361  99.2862 15.24749957454933
YAOGAN-30 04A           
1 43081U 17085A   26058.24084608  .00003480  00000+0  26196-3 0  9991
2 43081  34.9959  99.8756 0005734 267.3522  92.6530 15.02045999446178
YAOGAN-30 04B           
1 43082U 17085B   26058.26287368  .00003291  00000+0  24790-3 0  9990
2 43082  34.9949  99.8325 0003924 108.0502 252.0634 15.02041092446153
